{
    "links": {
        "self": "http://www.neowsapp.com/rest/v1/neo/3748406?api_key=iIulBulltgU6a56xZRHN4H3l9WmuAYTsLGpBGhQ2"
    },
    "id": "3748406",
    "neo_reference_id": "3748406",
    "name": "(2016 FH12)",
    "designation": "2016 FH12",
    "nasa_jpl_url": "http://ssd.jpl.nasa.gov/sbdb.cgi?sstr=3748406",
    "absolute_magnitude_h": 26.7,
    "estimated_diameter": {
        "kilometers": {
            "estimated_diameter_min": 0.0121494041,
            "estimated_diameter_max": 0.0271668934
        },
        "meters": {
            "estimated_diameter_min": 12.14940408,
            "estimated_diameter_max": 27.1668934089
        },
        "miles": {
            "estimated_diameter_min": 0.0075492874,
            "estimated_diameter_max": 0.0168807197
        },
        "feet": {
            "estimated_diameter_min": 39.8602508817,
            "estimated_diameter_max": 89.1302305717
        }
    },
    "is_potentially_hazardous_asteroid": false,
    "close_approach_data": [
        {
            "close_approach_date": "2016-04-23",
            "close_approach_date_full": "2016-Apr-23 00:15",
            "epoch_date_close_approach": 1461370500000,
            "relative_velocity": {
                "kilometers_per_second": "8.7160551997",
                "kilometers_per_hour": "31377.7987189927",
                "miles_per_hour": "19496.9438762541"
            },
            "miss_distance": {
                "astronomical": "0.0202340315",
                "lunar": "7.8710382535",
                "kilometers": "3026968.013912905",
                "miles": "1880870.706711889"
            },
            "orbiting_body": "Earth"
        }
    ],
    "orbital_data": {
        "orbit_id": "5",
        "orbit_determination_date": "2017-04-06 08:27:13",
        "first_observation_date": "2016-03-28",
        "last_observation_date": "2016-04-09",
        "data_arc_in_days": 12,
        "observations_used": 21,
        "orbit_uncertainty": "8",
        "minimum_orbit_intersection": ".0113519",
        "jupiter_tisserand_invariant": "3.969",
        "epoch_osculation": "2457477.5",
        "eccentricity": ".4574153745008616",
        "semi_major_axis": "1.775824472607208",
        "inclination": "1.431201515847631",
        "ascending_node_longitude": "252.4580160072246",
        "orbital_period": "864.3676050121825",
        "perihelion_distance": ".9635350564217871",
        "perihelion_argument": "353.2948094460511",
        "aphelion_distance": "2.588113888792629",
        "perihelion_time": "2457527.876140041475",
        "mean_anomaly": "339.0188684654888",
        "mean_motion": ".4164894634094092",
        "equinox": "J2000",
        "orbit_class": {
            "orbit_class_type": "APO",
            "orbit_class_description": "Near-Earth asteroid orbits which cross the Earth’s orbit similar to that of 1862 Apollo",
            "orbit_class_range": "a (semi-major axis) > 1.0 AU; q (perihelion) < 1.017 AU"
        }
    },
    "is_sentry_object": false
}